[Satellite]
VERSION=1.1
NAME=COMS 1
NICKNAME=COMS 1
TLE1=1 36744U 10032A   22342.50935295 -.00000330  00000+0  00000+0 0  9996
TLE2=2 36744   1.5184  91.6713 0001165 173.6239 123.4847  1.00270650 38186
STATUS=0
